{
    "links": {
        "self": "http://www.neowsapp.com/rest/v1/neo/54048940?api_key=iIulBulltgU6a56xZRHN4H3l9WmuAYTsLGpBGhQ2"
    },
    "id": "54048940",
    "neo_reference_id": "54048940",
    "name": "(2020 OH2)",
    "designation": "2020 OH2",
    "nasa_jpl_url": "http://ssd.jpl.nasa.gov/sbdb.cgi?sstr=54048940",
    "absolute_magnitude_h": 27.458,
    "estimated_diameter": {
        "kilometers": {
            "estimated_diameter_min": 0.00856949,
            "estimated_diameter_max": 0.0191619622
        },
        "meters": {
            "estimated_diameter_min": 8.5694900056,
            "estimated_diameter_max": 19.1619621849
        },
        "miles": {
            "estimated_diameter_min": 0.0053248326,
            "estimated_diameter_max": 0.0119066876
        },
        "feet": {
            "estimated_diameter_min": 28.1151255898,
            "estimated_diameter_max": 62.8673320148
        }
    },
    "is_potentially_hazardous_asteroid": false,
    "close_approach_data": [
        {
            "close_approach_date": "1983-10-25",
            "close_approach_date_full": "1983-Oct-25 05:39",
            "epoch_date_close_approach": 435908340000,
            "relative_velocity": {
                "kilometers_per_second": "6.9267974191",
                "kilometers_per_hour": "24936.4707087578",
                "miles_per_hour": "15494.5531467834"
            },
            "miss_distance": {
                "astronomical": "0.0656747403",
                "lunar": "25.5474739767",
                "kilometers": "9824801.261683161",
                "miles": "6104848.4184271818"
            },
            "orbiting_body": "Mars"
        },
        {
            "close_approach_date": "2020-07-15",
            "close_approach_date_full": "2020-Jul-15 12:09",
            "epoch_date_close_approach": 1594814940000,
            "relative_velocity": {
                "kilometers_per_second": "5.9584317734",
                "kilometers_per_hour": "21450.3543844027",
                "miles_per_hour": "13328.4160340195"
            },
            "miss_distance": {
                "astronomical": "0.012500738",
                "lunar": "4.862787082",
                "kilometers": "1870083.77822806",
                "miles": "1162016.176384828"
            },
            "orbiting_body": "Earth"
        },
        {
            "close_approach_date": "2022-08-07",
            "close_approach_date_full": "2022-Aug-07 00:34",
            "epoch_date_close_approach": 1659832440000,
            "relative_velocity": {
                "kilometers_per_second": "6.1581731907",
                "kilometers_per_hour": "22169.4234866472",
                "miles_per_hour": "13775.2176103559"
            },
            "miss_distance": {
                "astronomical": "0.0922453857",
                "lunar": "35.8834550373",
                "kilometers": "13799713.218048459",
                "miles": "8574744.1775243742"
            },
            "orbiting_body": "Mars"
        },
        {
            "close_approach_date": "2030-11-01",
            "close_approach_date_full": "2030-Nov-01 09:29",
            "epoch_date_close_approach": 1919755740000,
            "relative_velocity": {
                "kilometers_per_second": "6.9298599387",
                "kilometers_per_hour": "24947.4957793991",
                "miles_per_hour": "15501.4036969272"
            },
            "miss_distance": {
                "astronomical": "0.0634835682",
                "lunar": "24.6951080298",
                "kilometers": "9497006.582719734",
                "miles": "5901166.2497869692"
            },
            "orbiting_body": "Mars"
        }
    ],
    "orbital_data": {
        "orbit_id": "3",
        "orbit_determination_date": "2020-07-26 06:44:18",
        "first_observation_date": "2020-07-22",
        "last_observation_date": "2020-07-26",
        "data_arc_in_days": 4,
        "observations_used": 17,
        "orbit_uncertainty": "7",
        "minimum_orbit_intersection": ".0116752",
        "jupiter_tisserand_invariant": "4.512",
        "epoch_osculation": "2459000.5",
        "eccentricity": ".3325543490848636",
        "semi_major_axis": "1.48445662845631",
        "inclination": "2.557109573872528",
        "ascending_node_longitude": "128.8669515885182",
        "orbital_period": "660.6169260310754",
        "perihelion_distance": ".9907941206353108",
        "perihelion_argument": "138.2581929342982",
        "aphelion_distance": "1.97811913627731",
        "perihelion_time": "2459022.864416813367",
        "mean_anomaly": "347.8126191813117",
        "mean_motion": ".5449451653666312",
        "equinox": "J2000",
        "orbit_class": {
            "orbit_class_type": "APO",
            "orbit_class_description": "Near-Earth asteroid orbits which cross the Earth’s orbit similar to that of 1862 Apollo",
            "orbit_class_range": "a (semi-major axis) > 1.0 AU; q (perihelion) < 1.017 AU"
        }
    },
    "is_sentry_object": false
}